#dP2020  8 10  0  0  0.00000000      96 __u+U ITR00 FIT  IAC
## 2118  86400.00000000   900.00000000 59071 0.0000000000000
+  115   C01C02C03C04C05C06C07C08C09C10C11C12C13C14C16C19C20
+        C21C22C23C24C25C26C27C28C29C30C32C33C34C35C36C37C44
+        C45C46E01E02E03E04E05E07E08E09E11E12E13E14E15E18E19
+        E21E24E25E26E27E30E31E33E36G01G02G03G04G05G06G07G08
+        G09G10G11G12G13G15G16G17G18G19G20G21G22G24G25G26G27
+        G28G29G30G31G32J01J02J03R01R02R03R04R05R07R08R09R11
+        R12R13R14R15R16R17R18R19R20R21R23R24R26  0  0  0  0
++         0 13 13 15 13  8  8  8  8  8  8  8  8  7  8  8  8
++         8  8  7  8  7  8  7  7  8  8  8  7  8  8  8  8  0
++        10  9  4  4  4  5  5  4  5  4  5  5  5  4  5  5  4
++         4  5  5  4  5  4  4  4  5  3  3  3  3  3  3  3  3
++         3  3  3  3  3  3  3  3  3  3  3  4  4  3  3  3  3
++         3  3  3  3  3  9  8  8  6  5  5  5  5  5  5  5  5
++         5  6  5  5  6  5  5  6  6  5  6  6  8  0  0  0  0
%c M  cc GPS ccc cccc cccc cccc cccc ccccc ccccc ccccc ccccc
%c cc cc ccc ccc cccc cccc cccc cccc ccccc ccccc ccccc ccccc
%f  0.0000000  0.000000000  0.00000000000  0.000000000000000
%f  0.0000000  0.000000000  0.00000000000  0.000000000000000
%i    0    0    0    0      0      0      0      0         0
%i    0    0    0    0      0      0      0      0         0
/* INFORMATION & ANALYSIS CENTER (IAC)            RAPID DATA
/* S/V CLOCKS ARE ALIGNED TO GNSS TIME                      
/* G:C1WC2W R:C1PC2P E:C1XC5X C:C2IC6I J:C1CC2S             
/* PCV:IGS14_2114 OL/AL:FES2004  NONE     YN ORB:CoN CLK:CoN
*  2020 08 10 13 15  0.00000000
PC01      0.000000      0.000000      0.000000 999999.999999
PC02   4423.134830  41939.063229    348.239150    420.491828
PC03 -14751.155409  39530.347648   -452.853836    807.875961
PC04 -39650.671903  14385.298307   -670.099966   -371.939757
PC05  21876.239776  36046.016805    624.427750    -32.391498
PC06 -10919.549293  22358.346186  34447.749714    199.033592
PC07 -23639.521155  32957.060061 -12221.382466     87.560966
PC08  -7807.620286  35765.185642 -20505.599300   -436.709242
PC09   3661.111371  27522.234227  32099.424221    734.565743
PC10 -11740.150481  33773.757240 -22472.121106   -214.699890
PC11 -15837.681094   6091.770025 -22113.124169   -546.700052
PC12 -24059.434786  -9645.761396 -10355.245977    463.327882
PC13   1127.464350  41325.859013  -7391.212772    588.649638
PC14 -24067.352290  13614.843450   4021.517951    800.034746
PC16  -7288.538521  23171.121405  34556.865034   -591.316417
PC19  17841.380993 -17369.879675 -12554.714891    504.890696
PC20  26274.553892  -8345.827338   4228.629694   -836.152381
PC21 -19390.902972  -6027.948424 -19136.872575   -664.489558
PC22  -1190.178853 -16508.393236 -22460.824356   -765.964607
PC23   1693.077227  26946.392109  -7056.332686   -846.312820
PC24 -16377.706697   6239.440166  21716.741377   -746.057792
PC25  -9583.908058  24192.095369  10063.450593   -716.551212
PC26 -13287.942534 -13522.121036  20486.637467    787.231410
PC27  22665.982532  16230.566348   1389.906842    379.288704
PC28  10105.505912  21068.064028 -15248.240267   -184.403000
PC29   7784.346971 -13911.001198  22895.585790    267.982834
PC30  22142.122392   1359.881688  16934.301984    359.139592
PC32  19406.621416   5935.325007  19161.764130   -882.568212
PC33 -17819.141012  17479.419953  12505.043734   -793.979716
PC34 -21895.387696   -909.996308 -17276.783833   -881.255427
PC35 -10595.817327 -20723.994886  15368.709757   -708.794036
PC36  10242.123286 -23836.854195 -10233.630450   -895.447597
PC37  12670.678553  14490.977482 -20173.998916   -894.413706
PC44      0.000000      0.000000      0.000000 999999.999999
PC45  -1778.941726 -26930.427833   7132.738822    201.447936
PC46  16195.830996  -7030.377716 -21598.976752    694.104233
PE01  20088.999229  -5456.415959 -21034.105904   -916.614311
PE02 -20118.628294   5556.289321  20992.633643    153.429498
PE03 -29595.253565   -645.047435    681.169617   -330.171892
PE04  20967.180925 -11542.655759 -17406.273190   -583.599279
PE05 -20959.700788 -12616.442792 -16664.043440   -355.850153
PE07    145.630813  17129.550596  24147.893762   -420.721306
PE08 -20703.241709  11690.902896  17646.392457   6137.113813
PE09   -423.914437 -16979.884478 -24235.980875   5968.338863
PE11  -5334.025794 -26515.173139  12003.551072   4696.321709
PE12  10252.559051 -14125.517495  23899.295563   5662.930514
PE13   5272.596484  26421.132560 -12260.392801    402.914036
PE14 -27731.130756  -7360.268487  -3178.816669  -1115.120674
PE15  -9987.989683  14323.820638 -23899.887157    856.822955
PE18  21117.756809  16422.306990  -9415.329973  -1219.854999
PE19  29493.085175   2085.999335   1406.679541     49.614987
PE21  10054.804778  14135.808682 -23980.527803   -615.001148
PE24   6453.821593 -25972.206371  12656.146762   5304.872007
PE25  -9965.840133 -14253.584330  23961.941968   -514.912746
PE26  17527.927083  22787.325059   7026.733196   2859.290380
PE27  -6055.258583  25907.699518 -12966.359512    158.776321
PE30 -18823.823462  22030.509748   6031.407814   3677.203494
PE31  18505.649155 -22410.646666  -5575.270594   -473.575445
PE33  19380.772791   6190.258403  21498.874682   -463.904411
PE36 -17436.151768 -22997.553107  -6583.341868    522.640722
PG01  14728.309131  -1234.702166  21849.253192     32.916087
PG02 -13939.883936 -19665.180326 -10557.106977   -500.166014
PG03  21818.252341 -10045.133205  11149.554042   -265.935096
PG04  23444.300957  -1365.541452 -12431.298002   -122.882380
PG05 -13397.215771  -8228.879615 -21571.956001    -18.525604
PG06  -5914.877194 -25867.705682    413.176610   -313.943500
PG07   7622.938205 -18962.686040 -16370.409492   -347.080892
PG08  25967.638251   5944.385446   1856.243542    -43.997166
PG09  14511.308108 -10466.772481 -19686.420916   -268.120474
PG10  -7293.619756  20873.345223  14620.734271   -423.860072
PG11  20515.120882   6195.137250  14992.863666   -196.623461
PG12 -22241.883880   8080.863018  11672.928578     82.390027
PG13 -22331.611877 -13640.696970  -4984.994519     34.553619
PG15 -26455.797919  -3347.349158   1977.703062   -211.570219
PG16  14940.315124   6480.481111 -21285.837093   -193.904995
PG17  -3042.618839 -16159.156398  21293.465260    308.977783
PG18  -7396.993669  19582.940212 -16340.055986    266.753647
PG19 -11003.079240 -16868.661667  17047.376418   -120.321878
PG20 -14665.376363  21775.225953   2990.747682    527.077557
PG21  10400.940032  24452.961140   3707.946346     34.038167
PG22  20098.011096  -3508.629453  17133.121781   -765.310072
PG24 -16327.809964  -1033.166895  20775.050192    -16.945948
PG25 -20147.060411  16909.556056   2244.650117     33.677598
PG26   3631.417451  16971.071182 -20077.656706    258.876485
PG27  21878.918213  12672.328755  -8819.318587   -367.704582
PG28   7516.349835 -20009.088313  16443.122201    690.940032
PG29 -18275.887945   6129.817748 -18336.085608   -169.682920
PG30    794.092752 -25191.712722  -7965.173647   -279.509505
PG31   6583.021690  25419.523085  -1684.444603    -61.281697
PG32   4802.691107  16394.636634  20461.497439    330.559569
PJ01 -30332.157625  27153.555957  16200.957254   -190.525026
PJ02 -31608.994231  25494.144190  16269.531372     -2.203603
PJ03 -25188.875647  17401.418926 -24405.212650     -0.397108
PR01 -24770.044783   3713.996050  -4870.917751     65.826119
PR02 -16715.026084  11277.795739  15626.828443    440.342498
PR03   1181.378476  10973.460257  23036.217716     20.109756
PR04  18145.649809   4263.907192  17440.785483     59.360695
PR05  25010.073040  -4671.507379   1987.828224     55.591454
PR07  -1727.724026 -10825.161166 -22996.905181    -39.190729
PR08 -18175.553726  -4322.153575 -17306.397611    -53.974362
PR09   8695.933533 -23746.161532  -3011.914982    148.198201
PR11  -8177.825297  -9937.673666  22034.752975    -33.577135
PR12 -12694.775746   7939.322105  20679.918678    154.319464
PR13 -10201.926450  22186.354207   7378.962353    -42.305388
PR14  -1877.825811  23212.458275 -10414.395342     54.301275
PR15   7514.634095  10851.600068 -21801.842258    106.965029
PR16  12743.775435  -8973.334006 -20245.284426     -5.233817
PR17   9495.871461  19417.503354 -13506.491913    348.500074
PR18  18065.258120  17793.586874   3004.933919     45.348873
PR19  16902.247798   7498.932199  17559.619632   -106.187325
PR20   5199.119202  -9654.956607  23028.063332   -418.938217
PR21 -10239.014146 -19653.378459  12656.332279   -144.129790
PR23 -13843.615779   -996.751251 -21416.915090    324.370353
PR24  -4876.437542  10581.611975 -22679.320361      9.259734
PR26   8921.974423  -5651.462805  23223.425305   -362.398846
EOF
